GLOBALSTAR M075         
1 37192U 10054E   25169.77146265 -.00000089  00000+0  83472-4 0  9998
2 37192  51.9917 176.7130 0000088  72.6429  97.8224 12.62265839676046
GLOBALSTAR M073         
1 37193U 10054F   25169.53400700 -.00000101  00000+0  14381-4 0  9998
2 37193  52.0062  91.2548 0000646  36.1773 134.5391 12.62272008678009
GLOBALSTAR M083         
1 37739U 11033A   25169.38909729 -.00000104  00000+0 -21985-5 0  9993
2 37739  51.9873  40.4273 0000610  76.7438  94.4651 12.62263898647009
GLOBALSTAR M088         
1 37740U 11033B   25169.58022638 -.00000095  00000+0  47777-4 0  9996
2 37740  52.0062 305.3966 0000811 121.9577 318.8262 12.62265549642578
GLOBALSTAR M091         
1 37741U 11033C   25169.58002045 -.00000092  00000+0  63922-4 0  9994
2 37741  52.0000 268.8939 0000636 156.4727 223.6288 12.62268855643361
GLOBALSTAR M085         
1 37742U 11033D   25169.91667703 -.00000101  00000+0  16084-4 0  9998
2 37742  51.9845 218.9049 0000387 188.8180 342.3414 12.62269442643914
GLOBALSTAR M081         
1 37743U 11033E   25169.86417493 -.00000097  00000+0  36775-4 0  9995
2 37743  51.9940 221.8549 0000198 201.3211 329.8386 12.62266619644052
GLOBALSTAR M089         
1 37744U 11033F   25169.74533032 -.00000090  00000+0  79212-4 0  9997
2 37744  51.9900 176.4415 0000328  41.6836 130.5158 12.62264892644885
